GLOBALSTAR M084         
1 38040U 11080A   25270.52870215 -.00000099  00000+0  25745-4 0  9996
2 38040  51.9993  96.9087 0000502  94.3519 295.7918 12.62269198635595
GLOBALSTAR M080         
1 38041U 11080B   25270.92133971 -.00000105  00000+0 -73509-5 0  9993
2 38041  52.0045  97.3417 0001176  69.4745  74.9853 12.62269364635769
GLOBALSTAR M082         
1 38042U 11080C   25270.77735505 -.00000106  00000+0 -13211-4 0  9992
2 38042  52.0084  53.2495 0001089  84.2488  56.4485 12.62268798636455
GLOBALSTAR M092         
1 38043U 11080D   25270.81657373 -.00000093  00000+0  57371-4 0  9993
2 38043  52.0071 143.5168 0000752  74.8976   3.1394 12.62266167634910
GLOBALSTAR M090         
1 38044U 11080E   25270.88842782 -.00000111  00000+0 -40394-4 0  9990
2 38044  52.0136  46.7826 0000897 102.8744  62.2286 12.62262413636584
GLOBALSTAR M086         
1 38045U 11080F   25270.57841160 -.00000091  00000+0  71626-4 0  9994
2 38045  51.9911  48.0831 0001244 155.1088 285.6100 12.62277503636496
GLOBALSTAR M097         
1 39072U 13005A   25270.58799595 -.00000082  00000+0  12396-3 0  9997
2 39072  52.0064 322.7147 0000569 112.5091 247.5836 12.62265851583745
GLOBALSTAR M093         
1 39073U 13005B   25270.56196499 -.00000080  00000+0  13163-3 0  9991
2 39073  52.0118 316.0411 0000761 114.7965 245.2981 12.62264687583690
